NORAD_CAT_ID,OBJECT_NAME,OBJECT_TYPE,EPOCH,MEAN_MOTION,ECCENTRICITY,INCLINATION,RA_OF_ASC_NODE,ARG_OF_PERICENTER,MEAN_ANOMALY,BSTAR,MEAN_MOTION_DOT,MEAN_MOTION_DDOT,TLE_LINE0,TLE_LINE1,TLE_LINE2,SEMIMAJOR_AXIS,PERIOD,APOGEE,PERIGEE,DECAYED
50173.0,STARLINK-3289,PAYLOAD,2022-06-01 06:00:00,15.08828348,0.0007431,53.2246,302.6307,314.0185,347.9118,0.00284,0.00045209,0.0,0 STARLINK-3289,1 50173U 21125T   22152.25001157  .00045209  00000-0  28400-2 0  9996,2 50173  53.2246 302.6307 0007431 314.0185 347.9118 15.08828348 25702,6917.916,95.438,544.922,534.64,0.0
50173.0,STARLINK-3289,PAYLOAD,2022-06-01 20:00:01,15.08842897,0.0007606,53.2245,300.0146,316.8632,275.3884,0.00047553,7.291e-05,0.0,0 STARLINK-3289,1 50173U 21125T   22152.83334491  .00007291  00000-0  47553-3 0  9990,2 50173  53.2245 300.0146 0007606 316.8632 275.3884 15.08842897 25793,6917.871999999999,95.437,544.998,534.475,0.0
50173.0,STARLINK-3289,PAYLOAD,2022-06-02 18:49:16,15.08845162,0.0007457999999999,53.2263,295.7453,320.3042,39.7404,4.6371e-05,4.48e-06,0.0,0 STARLINK-3289,1 50173U 21125T   22153.78421719  .00000448  00000-0  46371-4 0  9990,2 50173  53.2263 295.7453 0007458 320.3042  39.7404 15.08845162 29033,6917.865,95.437,544.889,534.57,0.0
50173.0,STARLINK-3289,PAYLOAD,2022-06-03 02:46:11,15.08848621,0.0007517,53.2263,294.2593,321.5803,38.4653,2.4684e-05,1.03e-06,0.0,0 STARLINK-3289,1 50173U 21125T   22154.11541432  .00000103  00000-0  24684-4 0  9994,2 50173  53.2263 294.2593 0007517 321.5803  38.4653 15.08848621 25992,6917.854,95.437,544.919,534.519,0.0
50173.0,STARLINK-3289,PAYLOAD,2022-06-03 09:07:44,15.08849021,0.0007422,53.226000000000006,293.0695,322.0420000000001,38.0048,-3.0606e-05,-7.78e-06,0.0,0 STARLINK-3289,1 50173U 21125T   22154.38037486 -.00000778  00000-0 -30606-4 0  9993,2 50173  53.2260 293.0695 0007422 322.0420  38.0048 15.08849021 29123,6917.853,95.437,544.852,534.5830000000002,0.0
50173.0,STARLINK-3289,PAYLOAD,2022-06-03 18:40:03,15.08846213,0.0007442999999999,53.2262,291.2845,322.0625,37.9842,-0.00011726,-2.158e-05,0.0,0 STARLINK-3289,1 50173U 21125T   22154.77781803 -.00002158  00000-0 -11726-3 0  9990,2 50173  53.2262 291.2845 0007443 322.0625  37.9842 15.08846213 26095,6917.861,95.437,544.875,534.577,0.0
50173.0,STARLINK-3289,PAYLOAD,2022-06-04 12:09:18,15.08836972,0.0007804999999999,53.2258,288.015,322.0791,37.965,-6.2467e-05,-1.285e-05,0.0,0 STARLINK-3289,1 50173U 21125T   22155.50645940 -.00001285  00000-0 -62467-4 0  9992,2 50173  53.2258 288.0150 0007805 322.0791  37.9650 15.08836972 29292,6917.89,95.438,545.154,534.355,0.0
50173.0,STARLINK-3289,PAYLOAD,2022-06-05 22:00:00,15.08855249,0.0007896,53.2244,281.6874,327.6833,136.578,-0.00025205,-4.305e-05,0.0,0 STARLINK-3289,1 50173U 21125T   22156.91667824 -.00004305  00000-0 -25205-3 0  9997,2 50173  53.2244 281.6874 0007896 327.6833 136.5780 15.08855249 26416,6917.834,95.437,545.161,534.236,0.0
50173.0,STARLINK-3289,PAYLOAD,2022-06-06 14:00:01,15.08846563,0.0007803999999999,53.2247,278.6951,328.7252,158.7598,-0.001697,-0.00027221,0.0,0 STARLINK-3289,1 50173U 21125T   22157.58334491 -.00027221  00000-0 -16970-2 0  9992,2 50173  53.2247 278.6951 0007804 328.7252 158.7598 15.08846563  1300,6917.86,95.437,545.124,534.327,0.0
50173.0,STARLINK-3289,PAYLOAD,2022-06-06 20:00:01,15.08826891,0.0007951,53.2243,277.5734,329.4591,76.7245,0.0020607,0.00032668,0.0,0 STARLINK-3289,1 50173U 21125T   22157.83334491  .00032668  00000-0  20607-2 0  9991,2 50173  53.2243 277.5734 0007951 329.4591  76.7245 15.08826891  1300,6917.92,95.438,545.286,534.285,0.0
50173.0,STARLINK-3289,PAYLOAD,2022-06-07 00:33:57,15.08834299,0.0007867,53.2258,276.7178,329.4117,30.6416,2.6944e-05,1.38e-06,0.0,0 STARLINK-3289,1 50173U 21125T   22158.02358093  .00000138  00000-0  26944-4 0  9996,2 50173  53.2258 276.7178 0007867 329.4117  30.6416 15.08834299 26586,6917.898,95.438,545.205,534.321,0.0
50173.0,STARLINK-3289,PAYLOAD,2022-06-07 11:41:38,15.08843862,0.0007909,53.2255,274.6367,330.8482,29.2067,3.4903e-06,-2.35e-06,0.0,0 STARLINK-3289,1 50173U 21125T   22158.48725694 -.00000235  00000-0  34903-5 0  9995,2 50173  53.2255 274.6367 0007909 330.8482  29.2067 15.08843862 26658,6917.869000000002,95.437,545.205,534.262,0.0
50173.0,STARLINK-3289,PAYLOAD,2022-06-07 14:52:25,15.08845287,0.0007897,53.2254,274.0421,331.5731,28.4829,2.8018e-05,1.55e-06,0.0,0 STARLINK-3289,1 50173U 21125T   22158.61973477  .00000155  00000-0  28018-4 0  9993,2 50173  53.2254 274.0421 0007897 331.5731  28.4829 15.08845287 29768,6917.864000000001,95.437,545.192,534.266,0.0
50173.0,STARLINK-3289,PAYLOAD,2022-06-08 11:32:26,15.08841534,0.0007697,53.2255,270.1773,335.5361,24.5265,-2.233e-05,-6.46e-06,0.0,0 STARLINK-3289,1 50173U 21125T   22159.48085687 -.00000646  00000-0 -22330-4 0  9994,2 50173  53.2255 270.1773 0007697 335.5361  24.5265 15.08841534 29893,6917.876,95.437,545.065,534.4159999999998,0.0
50173.0,STARLINK-3289,PAYLOAD,2022-06-08 17:53:58,15.08844626,0.0007953,53.2253,268.988,335.0472,25.0135,3.2485e-08,-2.9e-06,0.0,0 STARLINK-3289,1 50173U 21125T   22159.74581365 -.00000290  00000-0  32485-7 0  9996,2 50173  53.2253 268.9880 0007953 335.0472  25.0135 15.08844626 26847,6917.866,95.437,545.2330000000002,534.229,0.0
50173.0,STARLINK-3289,PAYLOAD,2022-06-09 00:15:31,15.08834976,0.0007882999999999,53.2254,267.7983,335.4605,24.6011,2.5564e-05,1.16e-06,0.0,0 STARLINK-3289,1 50173U 21125T   22160.01077833  .00000116  00000-0  25564-4 0  9991,2 50173  53.2254 267.7983 0007883 335.4605  24.6011 15.08834976 26882,6917.896,95.438,545.214,534.307,0.0
50173.0,STARLINK-3289,PAYLOAD,2022-06-09 11:23:13,15.08833378,0.0007813,53.2258,265.7185,336.871,23.1929,-6.784199999999999e-05,-1.371e-05,0.0,0 STARLINK-3289,1 50173U 21125T   22160.47446414 -.00001371  00000-0 -67842-4 0  9997,2 50173  53.2258 265.7185 0007813 336.8710  23.1929 15.08833378 30043,6917.901,95.438,545.1709999999998,534.361,0.0
50173.0,STARLINK-3289,PAYLOAD,2022-06-10 06:27:50,15.08842105,0.0007901,53.2256,262.1494,338.5466,21.5195,1.8237e-05,0.0,0.0,0 STARLINK-3289,1 50173U 21125T   22161.26933620 -.00000000  00000-0  18237-4 0  9996,2 50173  53.2256 262.1494 0007901 338.5466  21.5195 15.08842105 27074,6917.874,95.437,545.205,534.273,0.0
50173.0,STARLINK-3289,PAYLOAD,2022-06-10 12:49:22,15.08845996,0.0007932999999999,53.2254,260.9604,338.6969,21.3692,4.2359e-05,3.84e-06,0.0,0 STARLINK-3289,1 50173U 21125T   22161.53429222  .00000384  00000-0  42359-4 0  9990,2 50173  53.2254 260.9604 0007933 338.6969  21.3692 15.08845996 30205,6917.861999999999,95.437,545.215,534.239,0.0
50173.0,STARLINK-3289,PAYLOAD,2022-06-10 23:57:05,15.08837116,0.0008228999999999,53.2239,258.8819,334.9666,25.0927,-0.0001569,-2.789e-05,0.0,0 STARLINK-3289,1 50173U 21125T   22161.99798457 -.00002789  00000-0 -15690-3 0  9999,2 50173  53.2239 258.8819 0008229 334.9666  25.0927 15.08837116 27184,6917.889,95.438,545.447,534.061,0.0
50173.0,STARLINK-3289,PAYLOAD,2022-06-11 12:40:12,15.08817962,0.0007843,53.2255,256.5012,341.0876,18.9824,-0.00013279,-2.404e-05,0.0,0 STARLINK-3289,1 50173U 21125T   22162.52792451 -.00002404  00000-0 -13279-3 0  9992,2 50173  53.2255 256.5012 0007843 341.0876  18.9824 15.08817962 27268,6917.948,95.439,545.238,534.387,0.0
50173.0,STARLINK-3289,PAYLOAD,2022-06-12 12:30:59,15.08823204,0.0007872999999999,53.2253,252.0413,343.352,16.7213,1.7272e-05,-1.6e-07,0.0,0 STARLINK-3289,1 50173U 21125T   22163.52152645 -.00000016  00000-0  17272-4 0  9992,2 50173  53.2253 252.0413 0007873 343.3520  16.7213 15.08823204 27417,6917.932,95.439,545.243,534.35,0.0
50173.0,STARLINK-3289,PAYLOAD,2022-06-12 15:41:45,15.08850348,0.0007752999999999,53.2253,251.4465,343.835,16.2394,-0.00030769,-5.189e-05,0.0,0 STARLINK-3289,1 50173U 21125T   22163.65400170 -.00005189  00000-0 -30769-3 0  9997,2 50173  53.2253 251.4465 0007753 343.8350  16.2394 15.08850348 27436,6917.849,95.437,545.077,534.35,0.0
50173.0,STARLINK-3289,PAYLOAD,2022-06-13 04:24:51,15.08825664,0.0008041,53.2249,249.0691,344.3151,15.7591,0.00016411,2.323e-05,0.0,0 STARLINK-3289,1 50173U 21125T   22164.18392565  .00002323  00000-0  16411-3 0  9997,2 50173  53.2249 249.0691 0008041 344.3151  15.7591 15.08825664 27516,6917.924,95.438,545.352,534.227,0.0
50173.0,STARLINK-3289,PAYLOAD,2022-06-13 12:21:46,15.08832841,0.0008064999999999,53.2248,247.5826,345.3414,14.7343,0.00020483,2.972e-05,0.0,0 STARLINK-3289,1 50173U 21125T   22164.51512225  .00002972  00000-0  20483-3 0  9995,2 50173  53.2248 247.5826 0008065 345.3414  14.7343 15.08832841 27561,6917.901999999999,95.438,545.347,534.188,0.0
50173.0,STARLINK-3289,PAYLOAD,2022-06-14 04:15:37,15.08848792,0.0008125,53.2246,244.6096,347.2795,12.7991,0.00018393,2.64e-05,0.0,0 STARLINK-3289,1 50173U 21125T   22165.17751334  .00002640  00000-0  18393-3 0  9993,2 50173  53.2246 244.6096 0008125 347.2795  12.7991 15.08848792 27666,6917.854,95.437,545.339,534.0980000000002,0.0
50173.0,STARLINK-3289,PAYLOAD,2022-06-14 12:12:33,15.08845663,0.0008152999999999,53.2248,243.1226,348.1998,11.8802,0.00014813,2.069e-05,0.0,0 STARLINK-3289,1 50173U 21125T   22165.50871576  .00002069  00000-0  14813-3 0  9999,2 50173  53.2248 243.1226 0008153 348.1998  11.8802 15.08845663 30808,6917.863,95.437,545.368,534.0880000000002,0.0
50173.0,STARLINK-3289,PAYLOAD,2022-06-15 04:06:25,15.08840024,0.0008265,53.2242,240.1497,349.5558,10.5261,-7.468799999999999e-06,-4.1e-06,0.0,0 STARLINK-3289,1 50173U 21125T   22166.17112324 -.00000410  00000-0 -74688-5 0  9990,2 50173  53.2242 240.1497 0008265 349.5558  10.5261 15.08840024 27818,6917.88,95.438,545.4630000000002,534.028,0.0
50173.0,STARLINK-3289,PAYLOAD,2022-06-15 12:03:21,15.08837648,0.0008234,53.2243,238.6622,350.0682,10.0146,-9.6584e-05,-1.829e-05,0.0,0 STARLINK-3289,1 50173U 21125T   22166.50232838 -.00001829  00000-0 -96584-4 0  9993,2 50173  53.2243 238.6622 0008234 350.0682  10.0146 15.08837648 30956,6917.888000000001,95.438,545.4490000000002,534.056,0.0
